[{"OBJECT_NAME":"STARLINK-5590","OBJECT_ID":"2023-013AS","EPOCH":"2026-03-08T02:35:28.705632","MEAN_MOTION":15.02537453,"ECCENTRICITY":0.0001034,"INCLINATION":43.0046,"RA_OF_ASC_NODE":321.7296,"ARG_OF_PERICENTER":283.4994,"MEAN_ANOMALY":76.5734,"EPHEMERIS_TYPE":0,"CLASSIFICATION_TYPE":"U","NORAD_CAT_ID":55371,"ELEMENT_SET_NO":999,"REV_AT_EPOCH":17224,"BSTAR":1.980854e-5,"MEAN_MOTION_DOT":6.4e-7,"MEAN_MOTION_DDOT":0},{"OBJECT_NAME":"ICEYE-X37","OBJECT_ID":"2024-043E","EPOCH":"2026-03-09T21:28:27.980256","MEAN_MOTION":15.05207146,"ECCENTRICITY":0.00148076,"INCLINATION":97.8149,"RA_OF_ASC_NODE":204.4924,"ARG_OF_PERICENTER":351.2295,"MEAN_ANOMALY":8.867,"EPHEMERIS_TYPE":0,"CLASSIFICATION_TYPE":"U","NORAD_CAT_ID":59102,"ELEMENT_SET_NO":999,"REV_AT_EPOCH":11014,"BSTAR":0.00044484532,"MEAN_MOTION_DOT":6.299e-5,"MEAN_MOTION_DDOT":0}]
